{
  "type": "FeatureCollection",
  "features": [
    {
      "type": "Feature",
      "properties": {
        "norad_id": 28051,
        "name": "IRS-P6 (RESOURCESAT-1)",
        "group": "resource",
        "lat": 45.25052735343609,
        "lon": -142.1550110785012,
        "alt_km": 731.9273281393216,
        "timestamp": "2025-12-15T04:01:20.099149+00:00",
        "meta_object_name": "IRS-P6 (RESOURCESAT-1)",
        "meta_object_id": "2003-046A",
        "meta_epoch": "2025-12-14T09:16:14.056320",
        "meta_mean_motion": 14.36076077,
        "meta_eccentricity": 0.00642375,
        "meta_inclination": 98.2181,
        "meta_ra_of_asc_node": 28.717,
        "meta_arg_of_pericenter": 175.7373,
        "meta_mean_anomaly": 241.8133,
        "meta_ephemeris_type": 0,
        "meta_classification_type": "U",
        "meta_norad_cat_id": 28051,
        "meta_element_set_no": 999,
        "meta_rev_at_epoch": 15400,
        "meta_bstar": 0.0001052342,
        "meta_mean_motion_dot": 2.73e-06,
        "meta_mean_motion_ddot": 0,
        "tle_line1": "1 28051U 03046A   25348.38627380  .00000273  00000+0  10523-3 0  9993",
        "tle_line2": "2 28051  98.2181  28.7170 0064237 175.7373 241.8133 14.36076077154000"
      },
      "geometry": {
        "type": "Point",
        "coordinates": [
          -142.1550110785012,
          45.25052735343609
        ]
      }
    },
    {
      "type": "Feature",
      "properties": {
        "norad_id": 28220,
        "name": "SHIYAN-1 (SY-1)",
        "group": "resource",
        "lat": 81.84838558086285,
        "lon": -53.54012952781619,
        "alt_km": 476.35754473658744,
        "timestamp": "2025-12-15T04:01:20.099160+00:00",
        "meta_object_name": "SHIYAN-1 (SY-1)",
        "meta_object_id": "2004-012A",
        "meta_epoch": "2025-12-14T04:02:57.129792",
        "meta_mean_motion": 15.28196137,
        "meta_eccentricity": 0.00055573,
        "meta_inclination": 97.8937,
        "meta_ra_of_asc_node": 49.7912,
        "meta_arg_of_pericenter": 320.4788,
        "meta_mean_anomaly": 39.6045,
        "meta_ephemeris_type": 0,
        "meta_classification_type": "U",
        "meta_norad_cat_id": 28220,
        "meta_element_set_no": 999,
        "meta_rev_at_epoch": 18278,
        "meta_bstar": 0.00053267183,
        "meta_mean_motion_dot": 0.00014576,
        "meta_mean_motion_ddot": 0,
        "tle_line1": "1 28220U 04012A   25348.16871678  .00014576  00000+0  53267-3 0  9995",
        "tle_line2": "2 28220  97.8937  49.7912 0005557 320.4788  39.6045 15.28196137182781"
      },
      "geometry": {
        "type": "Point",
        "coordinates": [
          -53.54012952781619,
          81.84838558086285
        ]
      }
    },
    {
      "type": "Feature",
      "properties": {
        "norad_id": 28376,
        "name": "AURA",
        "group": "resource",
        "lat": -75.87424795103058,
        "lon": 83.85705328768765,
        "alt_km": 698.2806720268054,
        "timestamp": "2025-12-15T04:01:20.099171+00:00",
        "meta_object_name": "AURA",
        "meta_object_id": "2004-026A",
        "meta_epoch": "2025-12-14T07:07:03.559872",
        "meta_mean_motion": 14.60951519,
        "meta_eccentricity": 0.00012629,
        "meta_inclination": 98.3186,
        "meta_ra_of_asc_node": 298.5303,
        "meta_arg_of_pericenter": 94.0328,
        "meta_mean_anomaly": 266.1017,
        "meta_ephemeris_type": 0,
        "meta_classification_type": "U",
        "meta_norad_cat_id": 28376,
        "meta_element_set_no": 999,
        "meta_rev_at_epoch": 13921,
        "meta_bstar": 0.00031953868,
        "meta_mean_motion_dot": 1.518e-05,
        "meta_mean_motion_ddot": 0,
        "tle_line1": "1 28376U 04026A   25348.29656898  .00001518  00000+0  31954-3 0  9992",
        "tle_line2": "2 28376  98.3186 298.5303 0001262  94.0328 266.1017 14.60951519139210"
      },
      "geometry": {
        "type": "Point",
        "coordinates": [
          83.85705328768765,
          -75.87424795103058
        ]
      }
    },
    {
      "type": "Feature",
      "properties": {
        "norad_id": 28649,
        "name": "IRS-P5 (CARTOSAT-1)",
        "group": "resource",
        "lat": 8.25757431391361,
        "lon": 14.370585658529725,
        "alt_km": 597.9055292682624,
        "timestamp": "2025-12-15T04:01:20.099183+00:00",
        "meta_object_name": "IRS-P5 (CARTOSAT-1)",
        "meta_object_id": "2005-017A",
        "meta_epoch": "2025-12-14T08:38:58.249824",
        "meta_mean_motion": 14.90412626,
        "meta_eccentricity": 0.00011474,
        "meta_inclination": 97.5499,
        "meta_ra_of_asc_node": 14.702,
        "meta_arg_of_pericenter": 48.5235,
        "meta_mean_anomaly": 311.6082,
        "meta_ephemeris_type": 0,
        "meta_classification_type": "U",
        "meta_norad_cat_id": 28649,
        "meta_element_set_no": 999,
        "meta_rev_at_epoch": 11628,
        "meta_bstar": 0.00025950197,
        "meta_mean_motion_dot": 2.476e-05,
        "meta_mean_motion_ddot": 0,
        "tle_line1": "1 28649U 05017A   25348.36039641  .00002476  00000+0  25950-3 0  9998",
        "tle_line2": "2 28649  97.5499  14.7020 0001147  48.5235 311.6082 14.90412626116282"
      },
      "geometry": {
        "type": "Point",
        "coordinates": [
          14.370585658529725,
          8.25757431391361
        ]
      }
    },
    {
      "type": "Feature",
      "properties": {
        "norad_id": 28893,
        "name": "SINAH 1",
        "group": "resource",
        "lat": 48.07086181625308,
        "lon": -52.96081116837928,
        "alt_km": 665.219535113697,
        "timestamp": "2025-12-15T04:01:20.099194+00:00",
        "meta_object_name": "SINAH 1",
        "meta_object_id": "2005-043D",
        "meta_epoch": "2025-12-14T07:44:28.973184",
        "meta_mean_motion": 14.63964821,
        "meta_eccentricity": 0.00154116,
        "meta_inclination": 98.2603,
        "meta_ra_of_asc_node": 116.884,
        "meta_arg_of_pericenter": 132.3381,
        "meta_mean_anomaly": 227.913,
        "meta_ephemeris_type": 0,
        "meta_classification_type": "U",
        "meta_norad_cat_id": 28893,
        "meta_element_set_no": 999,
        "meta_rev_at_epoch": 7347,
        "meta_bstar": 0.00013569461,
        "meta_mean_motion_dot": 6.63e-06,
        "meta_mean_motion_ddot": 0,
        "tle_line1": "1 28893U 05043D   25348.32255756  .00000663  00000+0  13569-3 0  9990",
        "tle_line2": "2 28893  98.2603 116.8840 0015411 132.3381 227.9130 14.63964821 73470"
      },
      "geometry": {
        "type": "Point",
        "coordinates": [
          -52.96081116837928,
          48.07086181625308
        ]
      }
    },
    {
      "type": "Feature",
      "properties": {
        "norad_id": 29079,
        "name": "EROS B",
        "group": "resource",
        "lat": -25.387949974207057,
        "lon": 109.36821563579618,
        "alt_km": 365.5697792873161,
        "timestamp": "2025-12-15T04:01:20.099205+00:00",
        "meta_object_name": "EROS B",
        "meta_object_id": "2006-014A",
        "meta_epoch": "2025-12-14T08:13:57.423072",
        "meta_mean_motion": 15.6887172,
        "meta_eccentricity": 0.00026124,
        "meta_inclination": 97.3463,
        "meta_ra_of_asc_node": 104.9933,
        "meta_arg_of_pericenter": 309.2192,
        "meta_mean_anomaly": 50.8838,
        "meta_ephemeris_type": 0,
        "meta_classification_type": "U",
        "meta_norad_cat_id": 29079,
        "meta_element_set_no": 999,
        "meta_rev_at_epoch": 9105,
        "meta_bstar": 0.0013767744,
        "meta_mean_motion_dot": 0.00160389,
        "meta_mean_motion_ddot": 0,
        "tle_line1": "1 29079U 06014A   25348.34302573  .00160389  00000+0  13768-2 0  9990",
        "tle_line2": "2 29079  97.3463 104.9933 0002612 309.2192  50.8838 15.68871720 91059"
      },
      "geometry": {
        "type": "Point",
        "coordinates": [
          109.36821563579618,
          -25.387949974207057
        ]
      }
    },
    {
      "type": "Feature",
      "properties": {
        "norad_id": 29228,
        "name": "RESURS-DK 1",
        "group": "resource",
        "lat": 54.61787452920982,
        "lon": -115.41281088325104,
        "alt_km": 527.3526188767019,
        "timestamp": "2025-12-15T04:01:20.099221+00:00",
        "meta_object_name": "RESURS-DK 1",
        "meta_object_id": "2006-021A",
        "meta_epoch": "2025-12-14T06:51:20.983392",
        "meta_mean_motion": 15.12172471,
        "meta_eccentricity": 0.00070958,
        "meta_inclination": 69.9333,
        "meta_ra_of_asc_node": 97.8432,
        "meta_arg_of_pericenter": 257.9448,
        "meta_mean_anomaly": 102.0923,
        "meta_ephemeris_type": 0,
        "meta_classification_type": "U",
        "meta_norad_cat_id": 29228,
        "meta_element_set_no": 999,
        "meta_rev_at_epoch": 7461,
        "meta_bstar": 0.00019725166,
        "meta_mean_motion_dot": 3.306e-05,
        "meta_mean_motion_ddot": 0,
        "tle_line1": "1 29228U 06021A   25348.28565953  .00003306  00000+0  19725-3 0  9995",
        "tle_line2": "2 29228  69.9333  97.8432 0007095 257.9448 102.0923 15.12172471 74617"
      },
      "geometry": {
        "type": "Point",
        "coordinates": [
          -115.41281088325104,
          54.61787452920982
        ]
      }
    }
  ]
}